NORAD_CAT_ID,OBJECT_NAME,OBJECT_TYPE,EPOCH,MEAN_MOTION,ECCENTRICITY,INCLINATION,RA_OF_ASC_NODE,ARG_OF_PERICENTER,MEAN_ANOMALY,BSTAR,MEAN_MOTION_DOT,MEAN_MOTION_DDOT,TLE_LINE0,TLE_LINE1,TLE_LINE2,SEMIMAJOR_AXIS,PERIOD,APOGEE,PERIGEE,DECAYED
52366.0,STARLINK-3808,PAYLOAD,2023-02-26 21:40:09,15.08853873,0.0001175,53.2167,117.6775,93.8759,266.2368,0.00018025,2.583e-05,0.0,0 STARLINK-3808,1 52366U 22045AM  23057.90288536  .00002583  00000-0  18025-3 0  9990,2 52366  53.2167 117.6775 0001175  93.8759 266.2368 15.08853873 48831,6917.838,95.437,540.516,538.89,0.0
52366.0,STARLINK-3808,PAYLOAD,2023-02-27 15:09:23,15.08894345,0.0001554,53.2164,114.4036,118.3407,241.7742,0.0042399,0.00067942,0.0,0 STARLINK-3808,1 52366U 22045AM  23058.63152125  .00067942  00000-0  42399-2 0  9995,2 52366  53.2164 114.4036 0001554 118.3407 241.7742 15.08894345 48942,6917.714,95.434,540.654,538.504,0.0
52366.0,STARLINK-3808,PAYLOAD,2023-02-28 03:52:28,15.08863869,0.0001489,53.217,112.0261,117.0044,243.1101,0.0016404,0.00025933,0.0,0 STARLINK-3808,1 52366U 22045AM  23059.16144113  .00025933  00000-0  16404-2 0  9994,2 52366  53.2170 112.0261 0001489 117.0044 243.1101 15.08863869 49025,6917.807,95.436,540.702,538.642,0.0
52366.0,STARLINK-3808,PAYLOAD,2023-02-28 10:14:00,15.08872894,0.0001333,53.2173,110.8364,112.8011,247.3122,0.0019337,0.00030649,0.0,0 STARLINK-3808,1 52366U 22045AM  23059.42639670  .00030649  00000-0  19337-2 0  9998,2 52366  53.2173 110.8364 0001333 112.8011 247.3122 15.08872894 49064,6917.78,95.435,540.567,538.723,0.0
52366.0,STARLINK-3808,PAYLOAD,2023-02-28 19:46:19,15.08846852,0.0001736,53.2176,109.0531,68.417,291.7007,0.0007208,0.00011204,0.0,0 STARLINK-3808,1 52366U 22045AM  23059.82384238  .00011204  00000-0  72080-3 0  9990,2 52366  53.2176 109.0531 0001736  68.4170 291.7007 15.08846852 49129,6917.859,95.437,540.925,538.524,0.0
52366.0,STARLINK-3808,PAYLOAD,2023-03-01 03:43:16,15.08784433,5.54e-05,53.2167,107.5642,88.7504,271.3552,-0.00027251,-4.615e-05,0.0,0 STARLINK-3808,1 52366U 22045AM  23060.15505289 -.00004615  00000-0 -27251-3 0  9999,2 52366  53.2167 107.5642 0000554  88.7504 271.3552 15.08784433 49178,6918.05,95.441,540.299,539.532,0.0
52366.0,STARLINK-3808,PAYLOAD,2023-03-01 08:29:26,15.08792105,9.31e-05,53.2172,106.6743,91.416,268.6938,0.0010793,0.00016908,0.0,0 STARLINK-3808,1 52366U 22045AM  23060.35377900  .00016908  00000-0  10793-2 0  9996,2 52366  53.2172 106.6743 0000931  91.4160 268.6938 15.08792105 49200,6918.027,95.441,540.536,539.248,0.0
52366.0,STARLINK-3808,PAYLOAD,2023-03-01 19:37:09,15.08815909,9.33e-05,53.2169,104.5941,76.9853,283.1243,0.0019168,0.00030329,0.0,0 STARLINK-3808,1 52366U 22045AM  23060.81747207  .00030329  00000-0  19168-2 0  9996,2 52366  53.2169 104.5941 0000933  76.9853 283.1243 15.08815909 49278,6917.954,95.439,540.464,539.174,0.0
52366.0,STARLINK-3808,PAYLOAD,2023-03-02 13:06:24,15.08859091,0.0001001,53.2167,101.3232,77.8132,282.2972,0.0018836,0.00029832,0.0,0 STARLINK-3808,1 52366U 22045AM  23061.54611270  .00029832  00000-0  18836-2 0  9995,2 52366  53.2167 101.3232 0001001  77.8132 282.2972 15.08859091 49382,6917.822,95.436,540.38,538.995,0.0
52366.0,STARLINK-3808,PAYLOAD,2023-03-03 09:46:23,15.0889523,0.0001105,53.2163,97.458,78.4209,281.6907,0.0019785,0.00031388,0.0,0 STARLINK-3808,1 52366U 22045AM  23062.40721534  .00031388  00000-0  19785-2 0  9999,2 52366  53.2163  97.4580 0001105  78.4209 281.6907 15.08895230 49517,6917.712,95.434,540.341,538.812,0.0
52366.0,STARLINK-3808,PAYLOAD,2023-03-03 19:18:41,15.0888413,0.0001302,53.2163,95.6735,78.4571,281.6567,0.0013355,0.00021056,0.0,0 STARLINK-3808,1 52366U 22045AM  23062.80465007  .00021056  00000-0  13355-2 0  9991,2 52366  53.2163  95.6735 0001302  78.4571 281.6567 15.08884130 49575,6917.746,95.435,540.511,538.71,0.0
52366.0,STARLINK-3808,PAYLOAD,2023-03-04 04:51:00,15.08853684,0.0001246,53.2169,93.8893,97.5939,262.5195,0.0011406,0.00017918,0.0,0 STARLINK-3808,1 52366U 22045AM  23063.20208959  .00017918  00000-0  11406-2 0  9994,2 52366  53.2169  93.8893 0001246  97.5939 262.5195 15.08853684 49635,6917.839,95.437,540.566,538.842,0.0
52366.0,STARLINK-3808,PAYLOAD,2023-03-04 11:12:32,15.08867025,0.0001614,53.2164,92.7003,86.6104,273.5073,0.0021297,0.00033794,0.0,0 STARLINK-3808,1 52366U 22045AM  23063.46704696  .00033794  00000-0  21297-2 0  9990,2 52366  53.2164  92.7003 0001614  86.6104 273.5073 15.08867025 49678,6917.798,95.436,540.779,538.546,0.0
52366.0,STARLINK-3808,PAYLOAD,2023-03-04 19:09:29,15.088432,0.0002101,53.2167,91.2123,76.6994,283.4232,0.0011376,0.00017865,0.0,0 STARLINK-3808,1 52366U 22045AM  23063.79825471  .00017865  00000-0  11376-2 0  9999,2 52366  53.2167  91.2123 0002101  76.6994 283.4232 15.08843200 49728,6917.871,95.437,541.189,538.282,0.0
52366.0,STARLINK-3808,PAYLOAD,2023-03-05 01:31:02,15.08839338,0.0002658,53.2171,90.0233,78.4034,281.7257,0.0013268,0.00020891,0.0,0 STARLINK-3808,1 52366U 22045AM  23064.06321899  .00020891  00000-0  13268-2 0  9990,2 52366  53.2171  90.0233 0002658  78.4034 281.7257 15.08839338 49763,6917.882,95.438,541.586,537.909,0.0
52366.0,STARLINK-3808,PAYLOAD,2023-03-05 07:52:34,15.08834109,0.0001607,53.2163,88.833,78.1859,281.9313,0.0017169,0.00027138,0.0,0 STARLINK-3808,1 52366U 22045AM  23064.32817951  .00027138  00000-0  17169-2 0  9993,2 52366  53.2163  88.8330 0001607  78.1859 281.9313 15.08834109 49803,6917.898,95.438,540.875,538.652,0.0
52366.0,STARLINK-3808,PAYLOAD,2023-03-05 19:00:16,15.08847665,0.0001725,53.2164,86.7524,72.1991,287.919,0.001666,0.00026332,0.0,0 STARLINK-3808,1 52366U 22045AM  23064.79186216  .00026332  00000-0  16660-2 0  9997,2 52366  53.2164  86.7524 0001725  72.1991 287.9190 15.08847665 49875,6917.857,95.437,540.915,538.529,0.0
52366.0,STARLINK-3808,PAYLOAD,2023-03-06 10:54:07,15.08871585,0.0001981,53.2168,83.7763,81.8481,278.2735,0.0013066,0.00020586,0.0,0 STARLINK-3808,1 52366U 22045AM  23065.45425390  .00020586  00000-0  13066-2 0  9992,2 52366  53.2168  83.7763 0001981  81.8481 278.2735 15.08871585 49973,6917.784,95.436,541.019,538.278,0.0
52366.0,STARLINK-3808,PAYLOAD,2023-03-06 12:29:30,15.08878463,0.0001939,53.2164,83.48,79.2863,280.8348,0.0014337,0.00022627,0.0,0 STARLINK-3808,1 52366U 22045AM  23065.52049140  .00022627  00000-0  14337-2 0  9995,2 52366  53.2164  83.4800 0001939  79.2863 280.8348 15.08878463 49988,6917.763,95.435,540.969,538.286,0.0
52366.0,STARLINK-3808,PAYLOAD,2023-03-07 04:23:22,15.08841481,0.0001563,53.2175,80.5069,91.5654,268.5518,0.00020508,2.977e-05,0.0,0 STARLINK-3808,1 52366U 22045AM  23066.18289889  .00002977  00000-0  20508-3 0  9998,2 52366  53.2175  80.5069 0001563  91.5654 268.5518 15.08841481 50088,6917.876,95.437,540.822,538.66,0.0
52366.0,STARLINK-3808,PAYLOAD,2023-03-07 12:20:18,15.08851152,0.0001486,53.2169,79.0193,99.468,260.648,0.0019544,0.00030963,0.0,0 STARLINK-3808,1 52366U 22045AM  23066.51409963  .00030963  00000-0  19544-2 0  9995,2 52366  53.2169  79.0193 0001486  99.4680 260.6480 15.08851152 50135,6917.846,95.437,540.739,538.683,0.0
52366.0,STARLINK-3808,PAYLOAD,2023-03-08 04:14:09,15.08848856,0.0001792,53.2178,76.0477,118.1162,242.0012,0.0013787,0.00021727,0.0,0 STARLINK-3808,1 52366U 22045AM  23067.17650308  .00021727  00000-0  13787-2 0  9990,2 52366  53.2178  76.0477 0001792 118.1162 242.0012 15.08848856 50234,6917.853,95.437,540.958,538.479,0.0
52366.0,STARLINK-3808,PAYLOAD,2023-03-08 16:57:15,15.08851417,0.0002068,53.2172,73.6671,87.5117,272.6112,0.00094471,0.00014784,0.0,0 STARLINK-3808,1 52366U 22045AM  23067.70642373  .00014784  00000-0  94471-3 0  9997,2 52366  53.2172  73.6671 0002068  87.5117 272.6112 15.08851417 50319,6917.845,95.437,541.141,538.28,0.0
52366.0,STARLINK-3808,PAYLOAD,2023-03-09 00:54:10,15.08858999,0.0002194,53.2175,72.1798,96.1482,263.976,0.0023027,0.0003657,0.0,0 STARLINK-3808,1 52366U 22045AM  23068.03762430  .00036570  00000-0  23027-2 0  9996,2 52366  53.2175  72.1798 0002194  96.1482 263.9760 15.08858999 50366,6917.822,95.436,541.205,538.17,0.0
52366.0,STARLINK-3808,PAYLOAD,2023-03-09 04:04:56,15.08840583,0.0001519,53.217,71.5868,98.3966,261.7199,0.00084762,0.00013228,0.0,0 STARLINK-3808,1 52366U 22045AM  23068.17010374  .00013228  00000-0  84762-3 0  9993,2 52366  53.2170  71.5868 0001519  98.3966 261.7199 15.08840583 50387,6917.879,95.438,540.794,538.693,0.0
52366.0,STARLINK-3808,PAYLOAD,2023-03-09 16:48:01,15.08856848,0.000148,53.2178,69.2085,83.9131,276.203,0.0012321,0.00019384,0.0,0 STARLINK-3808,1 52366U 22045AM  23068.70002266  .00019384  00000-0  12321-2 0  9993,2 52366  53.2178  69.2085 0001480  83.9131 276.2030 15.08856848 50466,6917.829,95.436,540.718,538.67,0.0
52366.0,STARLINK-3808,PAYLOAD,2023-03-10 05:31:06,15.08855285,0.0001552,53.2181,66.8265,86.7664,273.3506,0.00062574,9.689e-05,0.0,0 STARLINK-3808,1 52366U 22045AM  23069.22994032  .00009689  00000-0  62574-3 0  9995,2 52366  53.2181  66.8265 0001552  86.7664 273.3506 15.08855285 50544,6917.834,95.437,540.772,538.625,0.0
52366.0,STARLINK-3808,PAYLOAD,2023-03-10 10:17:16,15.08864594,0.0001925,53.2189,65.936,90.6633,269.458,0.0011178,0.00017559,0.0,0 STARLINK-3808,1 52366U 22045AM  23069.42865815  .00017559  00000-0  11178-2 0  9991,2 52366  53.2189  65.9360 0001925  90.6633 269.4580 15.08864594 50576,6917.805,95.436,541.002,538.339,0.0
52366.0,STARLINK-3808,PAYLOAD,2023-03-11 08:32:39,15.08853863,0.0001664,53.2178,61.764,117.4631,242.6531,0.00058456,9.031e-05,0.0,0 STARLINK-3808,1 52366U 22045AM  23070.35601597  .00009031  00000-0  58456-3 0  9997,2 52366  53.2178  61.7640 0001664 117.4631 242.6531 15.08853863 50717,6917.838,95.437,540.854,538.552,0.0
52366.0,STARLINK-3808,PAYLOAD,2023-03-11 11:43:25,15.08863624,0.0001531,53.2184,61.1754,109.1926,250.9232,0.0011044,0.00017344,0.0,0 STARLINK-3808,1 52366U 22045AM  23070.48849473  .00017344  00000-0  11044-2 0  9995,2 52366  53.2184  61.1754 0001531 109.1926 250.9232 15.08863624 50730,6917.808,95.436,540.732,538.614,0.0
